NORAD_CAT_ID,OBJECT_NAME,OBJECT_TYPE,EPOCH,MEAN_MOTION,ECCENTRICITY,INCLINATION,RA_OF_ASC_NODE,ARG_OF_PERICENTER,MEAN_ANOMALY,BSTAR,MEAN_MOTION_DOT,MEAN_MOTION_DDOT,TLE_LINE0,TLE_LINE1,TLE_LINE2,SEMIMAJOR_AXIS,PERIOD,APOGEE,PERIGEE,DECAYED
51468.0,STARLINK-3174,PAYLOAD,2023-09-22 12:57:18,15.08861306,0.0001536,53.2182,355.5733,71.9522,288.1637,0.00074347,0.00011571,0.0,0 STARLINK-3174,1 51468U 22010N   23265.53979223  .00011571  00000-0  74347-3 0  9990,2 51468  53.2182 355.5733 0001536  71.9522 288.1637 15.08861306 90775,6917.815,95.436,540.743,538.618,0.0
51468.0,STARLINK-3174,PAYLOAD,2023-09-22 22:29:36,15.08847119,0.0001846,53.2183,353.7878,72.7131,287.4063,0.00044446,6.794e-05,0.0,0 STARLINK-3174,1 51468U 22010N   23265.93723133  .00006794  00000-0  44446-3 0  9999,2 51468  53.2183 353.7878 0001846  72.7131 287.4063 15.08847119 91643,6917.859,95.437,541.001,538.447,0.0
51468.0,STARLINK-3174,PAYLOAD,2023-09-23 12:48:04,15.08854064,0.0001677,53.2191,351.1142,89.0661,271.0523,0.00015617,2.199e-05,0.0,0 STARLINK-3174,1 51468U 22010N   23266.53338707  .00002199  00000-0  15617-3 0  9998,2 51468  53.2191 351.1142 0001677  89.0661 271.0523 15.08854064 90926,6917.837,95.437,540.863,538.542,0.0
51468.0,STARLINK-3174,PAYLOAD,2023-09-24 04:41:56,15.08843402,0.0001571,53.2189,348.1418,87.0648,273.0524,6.7041e-05,7.79e-06,0.0,0 STARLINK-3174,1 51468U 22010N   23267.19579038  .00000779  00000-0  67041-4 0  9996,2 51468  53.2189 348.1418 0001571  87.0648 273.0524 15.08843402 91839,6917.87,95.437,540.822,538.648,0.0
51468.0,STARLINK-3174,PAYLOAD,2023-09-24 11:03:28,15.0884271,0.0001702,53.219,346.9522,97.9663,262.1522,3.7696e-07,-2.82e-06,0.0,0 STARLINK-3174,1 51468U 22010N   23267.46075074 -.00000282  00000-0  37696-6 0  9992,2 51468  53.2190 346.9522 0001702  97.9663 262.1522 15.08842710 91069,6917.872,95.437,540.915,538.56,0.0
51468.0,STARLINK-3174,PAYLOAD,2023-09-25 09:18:52,15.0884362,0.0001689,53.2185,342.7894,87.3126,272.8059,7.8924e-05,9.68e-06,0.0,0 STARLINK-3174,1 51468U 22010N   23268.38811165  .00000968  00000-0  78924-4 0  9990,2 51468  53.2185 342.7894 0001689  87.3126 272.8059 15.08843620 92010,6917.869,95.437,540.903,538.566,0.0
51468.0,STARLINK-3174,PAYLOAD,2023-09-25 12:29:38,15.08848508,0.0001688,53.2188,342.1932,104.3423,255.7757,0.00011157,1.488e-05,0.0,0 STARLINK-3174,1 51468U 22010N   23268.52058746  .00001488  00000-0  11157-3 0  9996,2 51468  53.2188 342.1932 0001688 104.3423 255.7757 15.08848508 91226,6917.854,95.437,540.887,538.552,0.0
51468.0,STARLINK-3174,PAYLOAD,2023-09-26 04:23:31,15.0883554,0.0001841,53.2178,339.2207,73.3656,286.7538,7.0509e-05,8.34e-06,0.0,0 STARLINK-3174,1 51468U 22010N   23269.18299813  .00000834  00000-0  70509-4 0  9992,2 51468  53.2178 339.2207 0001841  73.3656 286.7538 15.08835540 92135,6917.894,95.438,541.033,538.485,0.0
51468.0,STARLINK-3174,PAYLOAD,2023-09-26 12:20:26,15.08833022,0.0001541,53.2181,337.7319,84.3998,275.717,2.1757e-05,5.8e-07,0.0,0 STARLINK-3174,1 51468U 22010N   23269.51420094  .00000058  00000-0  21757-4 0  9995,2 51468  53.2181 337.7319 0001541  84.3998 275.7170 15.08833022 91372,6917.902,95.438,540.833,538.701,0.0
51468.0,STARLINK-3174,PAYLOAD,2023-09-27 09:00:27,15.08847325,0.0001469,53.2176,333.8644,86.8435,273.2725,0.00016014,2.262e-05,0.0,0 STARLINK-3174,1 51468U 22010N   23270.37531567  .00002262  00000-0  16014-3 0  9997,2 51468  53.2176 333.8644 0001469  86.8435 273.2725 15.08847325 92311,6917.858,95.437,540.739,538.707,0.0
51468.0,STARLINK-3174,PAYLOAD,2023-09-27 10:35:50,15.08850322,0.00015,53.2169,333.5679,88.1472,271.9692,0.00035007,5.289e-05,0.0,0 STARLINK-3174,1 51468U 22010N   23270.44155561  .00005289  00000-0  35007-3 0  9996,2 51468  53.2169 333.5679 0001500  88.1472 271.9692 15.08850322 91510,6917.849,95.437,540.752,538.676,0.0
51468.0,STARLINK-3174,PAYLOAD,2023-09-27 23:18:55,15.08839688,0.0001016,53.2175,331.1877,95.9486,264.1622,0.00018083,2.591e-05,0.0,0 STARLINK-3174,1 51468U 22010N   23270.97147901  .00002591  00000-0  18083-3 0  9991,2 51468  53.2175 331.1877 0001016  95.9486 264.1622 15.08839688 92402,6917.881,95.438,540.449,539.043,0.0
51468.0,STARLINK-3174,PAYLOAD,2023-09-28 10:26:38,15.08834353,0.0001597,53.2173,329.1084,97.9376,262.1797,0.0001008,1.316e-05,0.0,0 STARLINK-3174,1 51468U 22010N   23271.43516379  .00001316  00000-0  10080-3 0  9995,2 51468  53.2173 329.1084 0001597  97.9376 262.1797 15.08834353 91663,6917.898,95.438,540.867,538.658,0.0
51468.0,STARLINK-3174,PAYLOAD,2023-09-29 10:17:24,15.0884566,0.0001583,53.2162,324.648,83.4827,276.6345,8.9764e-05,1.141e-05,0.0,0 STARLINK-3174,1 51468U 22010N   23272.42876125  .00001141  00000-0  89764-4 0  9995,2 51468  53.2162 324.6480 0001583  83.4827 276.6345 15.08845660 91816,6917.863,95.437,540.823,538.633,0.0
51468.0,STARLINK-3174,PAYLOAD,2023-09-30 10:08:11,15.0886211,0.0001657,53.217,320.1894,86.1129,274.0052,0.00053059,8.171e-05,0.0,0 STARLINK-3174,1 51468U 22010N   23273.42235413  .00008171  00000-0  53059-3 0  9992,2 51468  53.2170 320.1894 0001657  86.1129 274.0052 15.08862110 92774,6917.813,95.436,540.824,538.532,0.0
51468.0,STARLINK-3174,PAYLOAD,2023-10-01 03:37:25,15.08846674,0.0001719,53.2172,316.9176,97.7322,262.3865,-1.7263e-05,-5.63e-06,0.0,0 STARLINK-3174,1 51468U 22010N   23274.15099383 -.00000563  00000-0 -17263-4 0  9994,2 51468  53.2172 316.9176 0001719  97.7322 262.3865 15.08846674 92885,6917.86,95.437,540.914,538.536,0.0
51468.0,STARLINK-3174,PAYLOAD,2023-10-01 09:58:58,15.08851708,0.0001763,53.2174,315.7295,98.4922,261.627,0.00014961,2.095e-05,0.0,0 STARLINK-3174,1 51468U 22010N   23274.41595234  .00002095  00000-0  14961-3 0  9990,2 51468  53.2174 315.7295 0001763  98.4922 261.6270 15.08851708 92111,6917.845,95.437,540.929,538.49,0.0
51468.0,STARLINK-3174,PAYLOAD,2023-10-02 01:52:50,15.08828503,0.0001686,53.2166,312.754,93.847,266.2715,-5.5254e-05,-1.167e-05,0.0,0 STARLINK-3174,1 51468U 22010N   23275.07836246 -.00001167  00000-0 -55254-4 0  9996,2 51468  53.2166 312.7540 0001686  93.8470 266.2715 15.08828503 93026,6917.916,95.438,540.947,538.614,0.0
51468.0,STARLINK-3174,PAYLOAD,2023-10-02 11:25:10,15.08806996,0.0001483,53.2162,310.9689,85.6699,274.4463,-0.00022185,-3.814e-05,0.0,0 STARLINK-3174,1 51468U 22010N   23275.47581535 -.00003814  00000-0 -22185-3 0  9995,2 51468  53.2162 310.9689 0001483  85.6699 274.4463 15.08806996 93082,6917.981,95.44,540.872,538.82,0.0
51468.0,STARLINK-3174,PAYLOAD,2023-10-02 19:22:06,15.0881881,0.0001488,53.2163,309.4806,82.1229,277.9932,0.00026712,3.963e-05,0.0,0 STARLINK-3174,1 51468U 22010N   23275.80702010  .00003963  00000-0  26712-3 0  9998,2 51468  53.2163 309.4806 0001488  82.1229 277.9932 15.08818810 92326,6917.945,95.439,540.84,538.781,0.0
51468.0,STARLINK-3174,PAYLOAD,2023-10-03 03:19:02,15.08839005,0.0001399,53.2152,307.9949,84.3632,275.752,0.00098248,0.00015382,0.0,0 STARLINK-3174,1 51468U 22010N   23276.13822064  .00015382  00000-0  98248-3 0  9998,2 51468  53.2152 307.9949 0001399  84.3632 275.7520 15.08839005 93181,6917.883,95.438,540.716,538.781,0.0
51468.0,STARLINK-3174,PAYLOAD,2023-10-03 09:40:34,15.08859882,0.0001508,53.2152,306.8059,82.3331,277.7832,0.0017652,0.00027932,0.0,0 STARLINK-3174,1 51468U 22010N   23276.40318006  .00027932  00000-0  17652-2 0  9997,2 51468  53.2152 306.8059 0001508  82.3331 277.7832 15.08859882 92415,6917.82,95.436,540.728,538.641,0.0
51468.0,STARLINK-3174,PAYLOAD,2023-10-03 19:12:53,15.08864375,0.0001662,53.2156,305.0216,87.0334,273.0849,0.0011702,0.00018397,0.0,0 STARLINK-3174,1 51468U 22010N   23276.80061675  .00018397  00000-0  11702-2 0  9993,2 51468  53.2156 305.0216 0001662  87.0334 273.0849 15.08864375 92477,6917.806,95.436,540.821,538.521,0.0
51468.0,STARLINK-3174,PAYLOAD,2023-10-04 09:31:20,15.08866344,0.0001664,53.2155,302.3449,87.2802,272.838,0.00062721,9.715e-05,0.0,0 STARLINK-3174,1 51468U 22010N   23277.39676877  .00009715  00000-0  62721-3 0  9996,2 51468  53.2155 302.3449 0001664  87.2802 272.8380 15.08866344 93373,6917.8,95.436,540.816,538.514,0.0
51468.0,STARLINK-3174,PAYLOAD,2023-10-05 01:25:11,15.08856099,0.0001714,53.2168,299.3721,95.1092,265.0096,0.00021649,3.161e-05,0.0,0 STARLINK-3174,1 51468U 22010N   23278.05916639  .00003161  00000-0  21649-3 0  9996,2 51468  53.2168 299.3721 0001714  95.1092 265.0096 15.08856099 93475,6917.831,95.437,540.882,538.51,0.0
51468.0,STARLINK-3174,PAYLOAD,2023-10-05 10:57:30,15.08858867,0.0001696,53.2157,297.5861,100.4412,259.6771,0.00034989,5.288e-05,0.0,0 STARLINK-3174,1 51468U 22010N   23278.45660285  .00005288  00000-0  34989-3 0  9996,2 51468  53.2157 297.5861 0001696 100.4412 259.6771 15.08858867 92724,6917.823,95.436,540.861,538.514,0.0
51468.0,STARLINK-3174,PAYLOAD,2023-10-05 18:54:26,15.08839874,0.0001927,53.2157,296.1006,88.8724,271.2489,-2.7702e-05,-7.29e-06,0.0,0 STARLINK-3174,1 51468U 22010N   23278.78780755 -.00000729  00000-0 -27702-4 0  9990,2 51468  53.2157 296.1006 0001927  88.8724 271.2489 15.08839874 93580,6917.881,95.438,541.079,538.413,0.0
51468.0,STARLINK-3174,PAYLOAD,2023-10-06 07:37:31,15.08842434,0.0001629,53.216,293.721,99.0326,261.085,0.00032097,4.824e-05,0.0,0 STARLINK-3174,1 51468U 22010N   23279.31772862  .00004824  00000-0  32097-3 0  9990,2 51468  53.2160 293.7210 0001629  99.0326 261.0850 15.08842434 92859,6917.873,95.437,540.865,538.611,0.0
51468.0,STARLINK-3174,PAYLOAD,2023-10-07 01:06:46,15.08842795,0.0001698,53.216,290.4491,101.4217,258.6966,0.00037609,5.703e-05,0.0,0 STARLINK-3174,1 51468U 22010N   23280.04637094  .00005703  00000-0  37609-3 0  9990,2 51468  53.2160 290.4491 0001698 101.4217 258.6966 15.08842795 93779,6917.872,95.437,540.912,538.562,0.0
51468.0,STARLINK-3174,PAYLOAD,2023-10-07 07:28:18,15.08844512,0.0001689,53.2162,289.2597,100.8484,259.2698,0.00040149,6.108e-05,0.0,0 STARLINK-3174,1 51468U 22010N   23280.31133047  .00006108  00000-0  40149-3 0  9992,2 51468  53.2162 289.2597 0001689 100.8484 259.2698 15.08844512 93007,6917.867,95.437,540.9,538.563,0.0
